STARLINK-31676          
1 59900U 24100R   26068.21708419  .00000478  00000+0  26887-4 0  9997
2 59900  42.9990 128.1434 0001282 163.6464 196.4430 15.27566795100971
ION SCV-017             
1 63230U 25052W   26068.71648816  .00006457  00000+0  24539-3 0  9998
2 63230  97.4016 324.7516 0023746  44.9875 315.3282 15.26881798 54851
